NORAD_CAT_ID,OBJECT_NAME,OBJECT_TYPE,EPOCH,MEAN_MOTION,ECCENTRICITY,INCLINATION,RA_OF_ASC_NODE,ARG_OF_PERICENTER,MEAN_ANOMALY,BSTAR,MEAN_MOTION_DOT,MEAN_MOTION_DDOT,TLE_LINE0,TLE_LINE1,TLE_LINE2,SEMIMAJOR_AXIS,PERIOD,APOGEE,PERIGEE,DECAYED
51734.0,STARLINK-3450,PAYLOAD,2022-05-02 14:00:01,15.31471612,0.0001863,53.2172,157.1346,35.5801,96.2807,-0.02506,-0.00713008,0.0,0 STARLINK-3450,1 51734U 22016W   22122.58334491 -.00713008  00000-0 -25060-1 0  9992,2 51734  53.2172 157.1346 0001863  35.5801  96.2807 15.31471612 12230,6849.558000000001,94.027,472.699,470.147,0.0
51734.0,STARLINK-3450,PAYLOAD,2022-05-02 22:00:01,15.3089543,0.000193,53.2164,155.5837,22.2513,148.1893,-0.022102,-0.00623909,0.0,0 STARLINK-3450,1 51734U 22016W   22122.91668981 -.00623909  00000-0 -22102-1 0  9997,2 51734  53.2164 155.5837 0001930  22.2513 148.1893 15.30895430  3639,6851.276,94.063,474.464,471.819,0.0
51734.0,STARLINK-3450,PAYLOAD,2022-05-03 14:00:01,15.29943124,0.0001917,53.2172,152.4847,36.7832,208.685,-0.026363,-0.00714952,0.0,0 STARLINK-3450,1 51734U 22016W   22123.58334491 -.00714952  00000-0 -26363-1 0  9999,2 51734  53.2172 152.4847 0001917  36.7832 208.6850 15.29943124 12383,6854.119000000002,94.121,477.298,474.67,0.0
51734.0,STARLINK-3450,PAYLOAD,2022-05-03 22:00:00,15.29419349,0.0001746,53.2169,150.9366,36.5525,245.5657,-0.025971,-0.00694559,0.0,0 STARLINK-3450,1 51734U 22016W   22123.91667824 -.00694559  00000-0 -25971-1 0  9999,2 51734  53.2169 150.9366 0001746  36.5525 245.5657 15.29419349  3635,6855.684,94.153,478.746,476.352,0.0
51734.0,STARLINK-3450,PAYLOAD,2022-05-04 14:00:01,15.28283592,0.0001764999999999,53.216,147.8475,44.3515,309.2870000000001,-0.021199,-0.00550366,0.0,0 STARLINK-3450,1 51734U 22016W   22124.58334491 -.00550366  00000-0 -21199-1 0  9999,2 51734  53.2160 147.8475 0001765  44.3515 309.2870 15.28283592 12531,6859.08,94.223,482.156,479.734,0.0
51734.0,STARLINK-3450,PAYLOAD,2022-05-04 20:00:01,15.28032111,0.0001659,53.2175,146.6864,40.656,249.1306,-0.028065,-0.0072555,0.0,0 STARLINK-3450,1 51734U 22016W   22124.83335648 -.00725550  00000-0 -28065-1 0  9990,2 51734  53.2175 146.6864 0001659  40.6560 249.1306 15.28032111 12576,6859.833000000001,94.239,482.836,480.56,0.0
51734.0,STARLINK-3450,PAYLOAD,2022-05-04 22:00:01,15.27901895,0.0001652,53.2173,146.3,36.0697,352.3623,-0.028015,-0.00721643,0.0,0 STARLINK-3450,1 51734U 22016W   22124.91668981 -.00721643  00000-0 -28015-1 0  9992,2 51734  53.2173 146.3000 0001652  36.0697 352.3623 15.27901895  3691,6860.222,94.247,483.221,480.954,0.0
51734.0,STARLINK-3450,PAYLOAD,2022-05-05 14:00:01,15.26743683,0.0001814,53.2158,143.2196,34.6418,61.5669,-0.020816,-0.00517815,0.0,0 STARLINK-3450,1 51734U 22016W   22125.58334491 -.00517815  00000-0 -20816-1 0  9997,2 51734  53.2158 143.2196 0001814  34.6418  61.5669 15.26743683  3632,6863.691,94.318,486.802,484.311,0.0
51734.0,STARLINK-3450,PAYLOAD,2022-05-05 22:00:00,15.26376025,0.0001946,53.217,141.6765,32.493,96.612,-0.029595,-0.00727274,0.0,0 STARLINK-3450,1 51734U 22016W   22125.91667824 -.00727274  00000-0 -29595-1 0  9998,2 51734  53.2170 141.6765 0001946  32.4930  96.6120 15.26376025 12746,6864.794,94.341,487.994,485.323,0.0
51734.0,STARLINK-3450,PAYLOAD,2022-05-06 14:00:01,15.25354277,0.0001768,53.2171,138.6004,43.647,149.5545,-0.030419,-0.00724879,0.0,0 STARLINK-3450,1 51734U 22016W   22126.58334491 -.00724879  00000-0 -30419-1 0  9998,2 51734  53.2171 138.6004 0001768  43.6470 149.5545 15.25354277  3679,6867.859,94.404,490.93800000000016,488.51,0.0
51734.0,STARLINK-3450,PAYLOAD,2022-05-07 06:00:02,15.24332172,0.0002016,53.2174,135.528,36.1048,218.8057,-0.031214,-0.00721543,0.0,0 STARLINK-3450,1 51734U 22016W   22127.25002315 -.00721543  00000-0 -31214-1 0  9999,2 51734  53.2174 135.5280 0002016  36.1048 218.8057 15.24332172 12946,6870.929,94.468,494.179,491.408,0.0
51734.0,STARLINK-3450,PAYLOAD,2022-05-07 14:00:01,15.23825928,0.000155,53.2171,133.9937,51.2149,233.5337,-0.031986,-0.00727747,0.0,0 STARLINK-3450,1 51734U 22016W   22127.58334491 -.00727747  00000-0 -31986-1 0  9996,2 51734  53.2171 133.9937 0001550  51.2149 233.5337 15.23825928  3665,6872.45,94.499,495.38,493.25,0.0
51734.0,STARLINK-3450,PAYLOAD,2022-05-07 22:00:00,15.23312048,0.0001626,53.2173,132.4591,43.6403,270.401,-0.032176,-0.00721373,0.0,0 STARLINK-3450,1 51734U 22016W   22127.91667824 -.00721373  00000-0 -32176-1 0  9993,2 51734  53.2173 132.4591 0001626  43.6403 270.4010 15.23312048  3650,6873.996,94.531,496.978,494.74300000000005,0.0
51734.0,STARLINK-3450,PAYLOAD,2022-05-08 06:00:00,15.22803877,0.0002002,53.2174,130.9289,31.0507,311.6663,-0.032793,-0.00724015,0.0,0 STARLINK-3450,1 51734U 22016W   22128.25001157 -.00724015  00000-0 -32793-1 0  9993,2 51734  53.2174 130.9289 0002002  31.0507 311.6663 15.22803877 13098,6875.525,94.562,498.766,496.013,0.0
51734.0,STARLINK-3450,PAYLOAD,2022-05-08 14:00:01,15.222953699999998,0.0001629,53.2173,129.398,40.2295,330.5518,-0.033413,-0.00726421,0.0,0 STARLINK-3450,1 51734U 22016W   22128.58334491 -.00726421  00000-0 -33413-1 0  9992,2 51734  53.2173 129.3980 0001629  40.2295 330.5518 15.22295370  3649,6877.056,94.594,500.041,497.801,0.0
51734.0,STARLINK-3450,PAYLOAD,2022-05-08 22:00:00,15.21782071,0.000166,53.2173,127.867,39.2769,358.9586,-0.033669,-0.00721308,0.0,0 STARLINK-3450,1 51734U 22016W   22128.91667824 -.00721308  00000-0 -33669-1 0  9990,2 51734  53.2173 127.8670 0001660  39.2769 358.9586 15.21782071  3655,6878.602,94.626,501.609,499.325,0.0
51734.0,STARLINK-3450,PAYLOAD,2022-05-09 14:00:01,15.20763775,0.0001602,53.2172,124.813,44.6284,46.7342,-0.034801,-0.0072334999999999,0.0,0 STARLINK-3450,1 51734U 22016W   22129.58335648 -.00723350  00000-0 -34801-1 0  9998,2 51734  53.2172 124.8130 0001602  44.6284  46.7342 15.20763775 13304,6881.6730000000025,94.689,504.64,502.435,0.0
51734.0,STARLINK-3450,PAYLOAD,2022-05-09 22:00:00,15.20253757,0.0001816,53.2174,123.2857,38.7815,78.1323,-0.035347,-0.00723774,0.0,0 STARLINK-3450,1 51734U 22016W   22129.91667824 -.00723774  00000-0 -35347-1 0  9995,2 51734  53.2174 123.2857 0001816  38.7815  78.1323 15.20253757  3655,6883.212,94.721,506.327,503.827,0.0
51734.0,STARLINK-3450,PAYLOAD,2022-05-10 14:00:01,15.19233604,0.0001745,53.2172,120.2387,44.9945,121.3072,-0.036371,-0.00722914,0.0,0 STARLINK-3450,1 51734U 22016W   22130.58334491 -.00722914  00000-0 -36371-1 0  9994,2 51734  53.2172 120.2387 0001745  44.9945 121.3072 15.19233604 13450,6886.293000000002,94.785,509.359,506.956,0.0
51734.0,STARLINK-3450,PAYLOAD,2022-05-10 18:00:00,15.18979191,0.0001579,53.2174,119.4766,42.3626,315.9035,-0.036694,-0.00723861,0.0,0 STARLINK-3450,1 51734U 22016W   22130.75001157 -.00723861  00000-0 -36694-1 0  9993,2 51734  53.2174 119.4766 0001579  42.3626 315.9035 15.18979191  3632,6887.061,94.801,510.014,507.839,0.0
51734.0,STARLINK-3450,PAYLOAD,2022-05-11 22:00:00,15.17193511,0.0001740999999999,53.2173,114.1551,46.0658,211.6606,-0.038558,-0.00722423,0.0,0 STARLINK-3450,1 51734U 22016W   22131.91667824 -.00722423  00000-0 -38558-1 0  9995,2 51734  53.2173 114.1551 0001741  46.0658 211.6606 15.17193511 13654,6892.464,94.912,515.529,513.129,0.0
51734.0,STARLINK-3450,PAYLOAD,2022-05-12 14:00:01,15.16175153,0.0001551999999999,53.2173,111.1222,50.5009,249.2598,-0.039896,-0.00725681,0.0,0 STARLINK-3450,1 51734U 22016W   22132.58334491 -.00725681  00000-0 -39896-1 0  9995,2 51734  53.2173 111.1222 0001552  50.5009 249.2598 15.16175153  1303,6895.55,94.976,518.485,516.345,0.0
51734.0,STARLINK-3450,PAYLOAD,2022-05-12 22:00:00,15.15662385,0.0001686,53.2174,109.6059,43.9533,275.9072,-0.040148,-0.00720052,0.0,0 STARLINK-3450,1 51734U 22016W   22132.91667824 -.00720052  00000-0 -40148-1 0  9990,2 51734  53.2174 109.6059 0001686  43.9533 275.9072 15.15662385  1300,6897.105,95.008,520.133,517.807,0.0
51734.0,STARLINK-3450,PAYLOAD,2022-05-13 06:00:00,15.15154508,0.0002002,53.2174,108.0939,32.6332,306.7112,-0.040984,-0.0072421,0.0,0 STARLINK-3450,1 51734U 22016W   22133.25001157 -.00724210  00000-0 -40984-1 0  9997,2 51734  53.2174 108.0939 0002002  32.6332 306.7112 15.15154508 13859,6898.647,95.04,521.893,519.13,0.0
51734.0,STARLINK-3450,PAYLOAD,2022-05-13 14:00:01,15.14644962,0.0001563,53.2173,106.58,44.669,313.5488,-0.041648,-0.00725227,0.0,0 STARLINK-3450,1 51734U 22016W   22133.58334491 -.00725227  00000-0 -41648-1 0  9990,2 51734  53.2173 106.5800 0001563  44.6690 313.5488 15.14644962  1305,6900.194,95.072,523.137,520.98,0.0
51734.0,STARLINK-3450,PAYLOAD,2022-05-13 22:00:00,15.14132162,0.0001558,53.2174,105.0675,47.7055,328.7736,-0.041894,-0.00719397,0.0,0 STARLINK-3450,1 51734U 22016W   22133.91667824 -.00719397  00000-0 -41894-1 0  9990,2 51734  53.2174 105.0675 0001558  47.7055 328.7736 15.14132162  1301,6901.752,95.104,524.692,522.5409999999998,0.0
51734.0,STARLINK-3450,PAYLOAD,2022-05-14 14:00:01,15.13114475,0.0001761,53.2173,102.0486,37.6944,13.4655,-0.04342,-0.00724152,0.0,0 STARLINK-3450,1 51734U 22016W   22134.58334491 -.00724152  00000-0 -43420-1 0  9997,2 51734  53.2173 102.0486 0001761  37.6944  13.4655 15.13114475 14069,6904.846,95.168,527.927,525.495,0.0
51734.0,STARLINK-3450,PAYLOAD,2022-05-14 22:00:00,15.12602565,0.0001968,53.2173,100.5397,33.3957,34.1867,-0.043777,-0.00719994,0.0,0 STARLINK-3450,1 51734U 22016W   22134.91667824 -.00719994  00000-0 -43777-1 0  9996,2 51734  53.2173 100.5397 0001968  33.3957  34.1867 15.12602565  1308,6906.404,95.2,529.628,526.909,0.0
51734.0,STARLINK-3450,PAYLOAD,2022-05-15 14:00:01,15.11584099,0.0001704,53.2173,97.5277,43.7523,54.8975,-0.045257,-0.00723141,0.0,0 STARLINK-3450,1 51734U 22016W   22135.58335648 -.00723141  00000-0 -45257-1 0  9990,2 51734  53.2173  97.5277 0001704  43.7523  54.8975 15.11584099 14215,6909.505,95.264,532.548,530.193,0.0
